CSS (TIANHE)            
1 48274U 21035A   24128.53655682  .00040008  00000+0  42427-3 0  9996
2 48274  41.4680 331.4471 0003882 302.3861  57.6603 15.63321873172733
